0 WESTAR 2
1 07466U 74075A   13284.00025679 -.00000290  00000-0  10000-3 0   686
2 07466 014.6674 346.9224 0007045 120.6672 239.4079 00.99860139 91406
0 WESTAR 2
1 07466U 74075A   13286.00298668 -.00000301  00000-0  10000-3 0   704
2 07466 014.6670 346.9018 0007105 119.7866 240.2848 00.99859541 91425
0 WESTAR 2
1 07466U 74075A   13292.01121155 -.00000313  00000-0  10000-3 0   712
2 07466 014.6656 346.8401 0007214 120.8885 239.1715 00.99857643 91486
0 WESTAR 2
1 07466U 74075A   13293.01259149 -.00000311  00000-0  10000-3 0   727
2 07466 014.6654 346.8311 0006443 121.9483 238.0945 00.99857207 91493
